GLOBALSTAR M067         
1 32263U 07048A   24261.96545317 -.00000035  00000+0  46235-3 0  9991
2 32263  51.9711 112.4656 0001621  99.9779  40.2672 12.40655135775694
GLOBALSTAR M070         
1 32264U 07048B   24261.69691181 -.00000078  00000+0  14186-3 0  9990
2 32264  51.9732 238.6097 0000126 100.0240  71.2909 12.62300487779258
GLOBALSTAR M066         
1 32265U 07048C   24261.92622314 -.00000059  00000+0  26447-3 0  9991
2 32265  51.9662 101.7792 0001287  12.7081 126.3088 12.53545936781516
GLOBALSTAR M068         
1 32266U 07048D   24261.89827859 -.00000081  00000+0  12738-3 0  9992
2 32266  51.9892  52.2680 0000299 194.2389 327.7858 12.62800561783159
GLOBALSTAR M079         
1 37188U 10054A   24261.93279321 -.00000104  00000+0 -24483-5 0  9990
2 37188  52.0022 248.5741 0000605  60.8359 316.5312 12.62264138642078
GLOBALSTAR M076         
1 37190U 10054C   24261.90587769 -.00000108  00000+0 -22370-4 0  9994
2 37190  52.0016 248.1701 0000696  89.6134 283.2406 12.62270340642397
GLOBALSTAR M077         
1 37191U 10054D   24261.61027213 -.00000100  00000+0  18493-4 0  9998
2 37191  52.0058 205.8441 0000472  63.3664 107.2866 12.62263790642727
